{
  "type": "FeatureCollection",
  "features": [
    {
      "type": "Feature",
      "properties": {
        "norad_id": 35022,
        "name": "COSMOS 2251 DEB",
        "group": "cosmos-2251-debris",
        "lat": -73.51145415346103,
        "lon": -104.13408471324337,
        "alt_km": 704.1092223686564,
        "timestamp": "2025-12-07T20:38:14.459264+00:00",
        "meta_object_name": "COSMOS 2251 DEB",
        "meta_object_id": "1993-036AGK",
        "meta_epoch": "2025-12-02T17:45:34.658208",
        "meta_mean_motion": 14.60763876,
        "meta_eccentricity": 0.00472905,
        "meta_inclination": 74.0262,
        "meta_ra_of_asc_node": 341.0512,
        "meta_arg_of_pericenter": 183.6288,
        "meta_mean_anomaly": 176.4543,
        "meta_ephemeris_type": 0,
        "meta_classification_type": "U",
        "meta_norad_cat_id": 35022,
        "meta_element_set_no": 999,
        "meta_rev_at_epoch": 58997,
        "meta_bstar": 0.00056913021,
        "meta_mean_motion_dot": 2.791e-05,
        "meta_mean_motion_ddot": 0,
        "tle_line1": "1 35022U 93036AGK 25336.73998447  .00002791  00000+0  56913-3 0  9998",
        "tle_line2": "2 35022  74.0262 341.0512 0047290 183.6288 176.4543 14.60763876589975"
      },
      "geometry": {
        "type": "Point",
        "coordinates": [
          -104.13408471324337,
          -73.51145415346103
        ]
      }
    },
    {
      "type": "Feature",
      "properties": {
        "norad_id": 35023,
        "name": "COSMOS 2251 DEB",
        "group": "cosmos-2251-debris",
        "lat": -27.437126537354608,
        "lon": 50.97224013739332,
        "alt_km": 589.2123558977064,
        "timestamp": "2025-12-07T20:38:14.459273+00:00",
        "meta_object_name": "COSMOS 2251 DEB",
        "meta_object_id": "1993-036AGL",
        "meta_epoch": "2025-12-07T02:42:30.646080",
        "meta_mean_motion": 14.94828028,
        "meta_eccentricity": 0.00342471,
        "meta_inclination": 74.0379,
        "meta_ra_of_asc_node": 223.9317,
        "meta_arg_of_pericenter": 302.7742,
        "meta_mean_anomaly": 207.7182,
        "meta_ephemeris_type": 0,
        "meta_classification_type": "U",
        "meta_norad_cat_id": 35023,
        "meta_element_set_no": 999,
        "meta_rev_at_epoch": 88195,
        "meta_bstar": 0.0025053291,
        "meta_mean_motion_dot": 0.0002767,
        "meta_mean_motion_ddot": 0,
        "tle_line1": "1 35023U 93036AGL 25341.11285470  .00027670  00000+0  25053-2 0  9995",
        "tle_line2": "2 35023  74.0379 223.9317 0034247 302.7742 207.7182 14.94828028881951"
      },
      "geometry": {
        "type": "Point",
        "coordinates": [
          50.97224013739332,
          -27.437126537354608
        ]
      }
    },
    {
      "type": "Feature",
      "properties": {
        "norad_id": 35025,
        "name": "COSMOS 2251 DEB",
        "group": "cosmos-2251-debris",
        "lat": -43.52172276887939,
        "lon": 56.6101616629569,
        "alt_km": 608.1924216196794,
        "timestamp": "2025-12-07T20:38:14.459297+00:00",
        "meta_object_name": "COSMOS 2251 DEB",
        "meta_object_id": "1993-036AGN",
        "meta_epoch": "2025-12-05T13:24:32.861952",
        "meta_mean_motion": 14.72652613,
        "meta_eccentricity": 0.00847967,
        "meta_inclination": 73.9386,
        "meta_ra_of_asc_node": 76.9946,
        "meta_arg_of_pericenter": 351.3968,
        "meta_mean_anomaly": 8.5744,
        "meta_ephemeris_type": 0,
        "meta_classification_type": "U",
        "meta_norad_cat_id": 35025,
        "meta_element_set_no": 999,
        "meta_rev_at_epoch": 88537,
        "meta_bstar": 0.00071609127,
        "meta_mean_motion_dot": 4.797e-05,
        "meta_mean_motion_ddot": 0,
        "tle_line1": "1 35025U 93036AGN 25339.55871368  .00004797  00000+0  71609-3 0  9993",
        "tle_line2": "2 35025  73.9386  76.9946 0084796 351.3968   8.5744 14.72652613885379"
      },
      "geometry": {
        "type": "Point",
        "coordinates": [
          56.6101616629569,
          -43.52172276887939
        ]
      }
    },
    {
      "type": "Feature",
      "properties": {
        "norad_id": 35026,
        "name": "COSMOS 2251 DEB",
        "group": "cosmos-2251-debris",
        "lat": 18.48361120302339,
        "lon": 142.52877300182715,
        "alt_km": 700.9525776450109,
        "timestamp": "2025-12-07T20:38:14.459308+00:00",
        "meta_object_name": "COSMOS 2251 DEB",
        "meta_object_id": "1993-036AGP",
        "meta_epoch": "2025-12-06T07:51:48.078720",
        "meta_mean_motion": 14.53617344,
        "meta_eccentricity": 0.00822532,
        "meta_inclination": 74.0464,
        "meta_ra_of_asc_node": 330.9073,
        "meta_arg_of_pericenter": 86.1829,
        "meta_mean_anomaly": 338.5159,
        "meta_ephemeris_type": 0,
        "meta_classification_type": "U",
        "meta_norad_cat_id": 35026,
        "meta_element_set_no": 999,
        "meta_rev_at_epoch": 88050,
        "meta_bstar": 0.00012460817,
        "meta_mean_motion_dot": 5.15e-06,
        "meta_mean_motion_ddot": 0,
        "tle_line1": "1 35026U 93036AGP 25340.32763980  .00000515  00000+0  12461-3 0  9996",
        "tle_line2": "2 35026  74.0464 330.9073 0082253  86.1829 338.5159 14.53617344880505"
      },
      "geometry": {
        "type": "Point",
        "coordinates": [
          142.52877300182715,
          18.48361120302339
        ]
      }
    },
    {
      "type": "Feature",
      "properties": {
        "norad_id": 35028,
        "name": "COSMOS 2251 DEB",
        "group": "cosmos-2251-debris",
        "lat": -39.03484831445463,
        "lon": 113.65932897966437,
        "alt_km": 766.8016152956834,
        "timestamp": "2025-12-07T20:38:14.459318+00:00",
        "meta_object_name": "COSMOS 2251 DEB",
        "meta_object_id": "1993-036AGR",
        "meta_epoch": "2025-12-06T14:45:20.784960",
        "meta_mean_motion": 14.56559763,
        "meta_eccentricity": 0.00822588,
        "meta_inclination": 74.0381,
        "meta_ra_of_asc_node": 282.6027,
        "meta_arg_of_pericenter": 57.9846,
        "meta_mean_anomaly": 116.6366,
        "meta_ephemeris_type": 0,
        "meta_classification_type": "U",
        "meta_norad_cat_id": 35028,
        "meta_element_set_no": 999,
        "meta_rev_at_epoch": 88196,
        "meta_bstar": 0.00020909724,
        "meta_mean_motion_dot": 9.44e-06,
        "meta_mean_motion_ddot": 0,
        "tle_line1": "1 35028U 93036AGR 25340.61482390  .00000944  00000+0  20910-3 0  9997",
        "tle_line2": "2 35028  74.0381 282.6027 0082258  57.9846 116.6366 14.56559763881966"
      },
      "geometry": {
        "type": "Point",
        "coordinates": [
          113.65932897966437,
          -39.03484831445463
        ]
      }
    },
    {
      "type": "Feature",
      "properties": {
        "norad_id": 35031,
        "name": "COSMOS 2251 DEB",
        "group": "cosmos-2251-debris",
        "lat": 73.77769468328871,
        "lon": 8.616525690955454,
        "alt_km": 756.7900336795537,
        "timestamp": "2025-12-07T20:38:14.459328+00:00",
        "meta_object_name": "COSMOS 2251 DEB",
        "meta_object_id": "1993-036AGU",
        "meta_epoch": "2025-12-06T02:28:30.271296",
        "meta_mean_motion": 14.38280865,
        "meta_eccentricity": 0.00185684,
        "meta_inclination": 74.0385,
        "meta_ra_of_asc_node": 271.4894,
        "meta_arg_of_pericenter": 6.3258,
        "meta_mean_anomaly": 353.8127,
        "meta_ephemeris_type": 0,
        "meta_classification_type": "U",
        "meta_norad_cat_id": 35031,
        "meta_element_set_no": 999,
        "meta_rev_at_epoch": 65188,
        "meta_bstar": 0.00033805858,
        "meta_mean_motion_dot": 1.004e-05,
        "meta_mean_motion_ddot": 0,
        "tle_line1": "1 35031U 93036AGU 25340.10312814  .00001004  00000+0  33806-3 0  9994",
        "tle_line2": "2 35031  74.0385 271.4894 0018568   6.3258 353.8127 14.38280865651880"
      },
      "geometry": {
        "type": "Point",
        "coordinates": [
          8.616525690955454,
          73.77769468328871
        ]
      }
    },
    {
      "type": "Feature",
      "properties": {
        "norad_id": 35032,
        "name": "COSMOS 2251 DEB",
        "group": "cosmos-2251-debris",
        "lat": -37.63088999855575,
        "lon": 3.7695326655273997,
        "alt_km": 704.7729223344322,
        "timestamp": "2025-12-07T20:38:14.459338+00:00",
        "meta_object_name": "COSMOS 2251 DEB",
        "meta_object_id": "1993-036AGV",
        "meta_epoch": "2025-12-06T20:57:06.952032",
        "meta_mean_motion": 14.58651101,
        "meta_eccentricity": 0.00687525,
        "meta_inclination": 73.8514,
        "meta_ra_of_asc_node": 18.577,
        "meta_arg_of_pericenter": 230.8542,
        "meta_mean_anomaly": 308.7404,
        "meta_ephemeris_type": 0,
        "meta_classification_type": "U",
        "meta_norad_cat_id": 35032,
        "meta_element_set_no": 999,
        "meta_rev_at_epoch": 87588,
        "meta_bstar": 0.0016314058,
        "meta_mean_motion_dot": 7.832e-05,
        "meta_mean_motion_ddot": 0,
        "tle_line1": "1 35032U 93036AGV 25340.87299713  .00007832  00000+0  16314-2 0  9990",
        "tle_line2": "2 35032  73.8514  18.5770 0068752 230.8542 308.7404 14.58651101875887"
      },
      "geometry": {
        "type": "Point",
        "coordinates": [
          3.7695326655273997,
          -37.63088999855575
        ]
      }
    }
  ]
}